[{"OBJECT_NAME":"STARLINK-32754","OBJECT_ID":"2025-004S","EPOCH":"2026-03-09T11:06:41.216256","MEAN_MOTION":15.27589937,"ECCENTRICITY":0.00017795,"INCLINATION":42.9981,"RA_OF_ASC_NODE":221.1752,"ARG_OF_PERICENTER":292.616,"MEAN_ANOMALY":67.4503,"EPHEMERIS_TYPE":0,"CLASSIFICATION_TYPE":"U","NORAD_CAT_ID":62527,"ELEMENT_SET_NO":999,"REV_AT_EPOCH":6547,"BSTAR":0.0011224251,"MEAN_MOTION_DOT":0.00030763,"MEAN_MOTION_DDOT":0},{"OBJECT_NAME":"SIMSAT 2","OBJECT_ID":"2000-026B","EPOCH":"2026-03-09T20:25:01.673184","MEAN_MOTION":15.29036787,"ECCENTRICITY":0.00037035,"INCLINATION":86.3514,"RA_OF_ASC_NODE":176.4271,"ARG_OF_PERICENTER":287.9875,"MEAN_ANOMALY":72.0969,"EPHEMERIS_TYPE":0,"CLASSIFICATION_TYPE":"U","NORAD_CAT_ID":26366,"ELEMENT_SET_NO":999,"REV_AT_EPOCH":42803,"BSTAR":0.00013465771,"MEAN_MOTION_DOT":3.833e-5,"MEAN_MOTION_DDOT":0}]
